[{"OBJECT_NAME":"STARLINK-36623","OBJECT_ID":"2026-020AD","EPOCH":"2026-03-09T22:00:01.999584","MEAN_MOTION":15.68350868,"ECCENTRICITY":0.00014151,"INCLINATION":42.9996,"RA_OF_ASC_NODE":140.5676,"ARG_OF_PERICENTER":279.5393,"MEAN_ANOMALY":109.8859,"EPHEMERIS_TYPE":0,"CLASSIFICATION_TYPE":"U","NORAD_CAT_ID":67644,"ELEMENT_SET_NO":999,"REV_AT_EPOCH":599,"BSTAR":-0.01921324,"MEAN_MOTION_DOT":-0.01963309,"MEAN_MOTION_DDOT":0},{"OBJECT_NAME":"COSMOS 1408 DEB","OBJECT_ID":"1982-092ALR","EPOCH":"2026-03-09T18:12:47.403072","MEAN_MOTION":15.6244858,"ECCENTRICITY":0.00237417,"INCLINATION":82.5714,"RA_OF_ASC_NODE":343.2099,"ARG_OF_PERICENTER":182.9883,"MEAN_ANOMALY":177.1238,"EPHEMERIS_TYPE":0,"CLASSIFICATION_TYPE":"U","NORAD_CAT_ID":50621,"ELEMENT_SET_NO":999,"REV_AT_EPOCH":23606,"BSTAR":0.00039817485,"MEAN_MOTION_DOT":0.00035952,"MEAN_MOTION_DDOT":0}]
